24873,IRIDIUM 921,1997,92.86,-1.0,-,86.38,Inactive,0,LEO,USA,USA,Unknown,Unknown,Unknown,1 24873U 97034E   24276.38499111  .00106564  00000+0  18278-2 0  9993,2 24873  86.3758 234.6211 0007467 124.8053 235.3910 15.50781275491726,15.50781275,0.0007467,LEO
24903,IRIDIUM 26,1997,100.23,-1.0,-,86.4,Inactive,0,LEO,USA,USA,Unknown,Unknown,Unknown,1 24903U 97043A   24276.39322410  .00002663  00000+0  89874-3 0  9991,2 24903  86.3992 218.7617 0002246  87.9937 272.1517 14.36642122419725,14.36642122,0.0002246,LEO
24907,IRIDIUM 22,1997,100.31,-1.0,-,86.4,Inactive,0,LEO,USA,USA,Unknown,Unknown,Unknown,1 24907U 97043E   24276.39288251  .00002347  00000+0  80956-3 0  9990,2 24907  86.3988 222.0807 0002421  84.7660 275.3813 14.35509215419780,14.35509215,0.0002421,LEO
24925,DUMMY MASS 1,1997,96.87,-1.0,-,86.33,Inactive,0,LEO,PRC,China,Unknown,Unknown,Unknown,1 24925U 97048A   24276.44020233  .00002117  00000+0  23654-3 0  9992,2 24925  86.3304 254.3993 0006390   2.5351 357.5905 14.86464993466832,14.86464993,0.000639,LEO
24926,DUMMY MASS 2,1997,96.89,-1.0,-,86.33,Inactive,0,LEO,PRC,China,Unknown,Unknown,Unknown,1 24926U 97048B   24276.42699814  .00002086  00000+0  23440-3 0  9996,2 24926  86.3301 255.9680 0007636  11.0715 349.0676 14.86220727466615,14.86220727,0.0007636,LEO
24944,IRIDIUM 29,1997,100.28,-1.0,-,86.39,Inactive,0,LEO,Kazakhstan,USA,Unknown,Unknown,Unknown,1 24944U 97051A   24276.43189344  .00002399  00000+0  82017-3 0  9995,2 24944  86.3915 251.9116 0002458  83.1583 276.9893 14.35954690416279,14.3595469,0.0002458,LEO
24946,IRIDIUM 33,1997,100.38,-1.0,-,86.38,Inactive,0,LEO,Kazakhstan,USA,Unknown,Unknown,Unknown,1 24946U 97051C   24276.42173934  .00001612  00000+0  56465-3 0  9999,2 24946  86.3831 251.1620 0007391 182.8860 177.2295 14.34538402415788,14.34538402,0.0007391,LEO
24948,IRIDIUM 28,1997,100.22,-1.0,-,86.39,Inactive,0,LEO,Kazakhstan,USA,Unknown,Unknown,Unknown,1 24948U 97051E   24276.43423893  .00002280  00000+0  76455-3 0  9997,2 24948  86.3925 249.5713 0002170  98.5795 261.5648 14.36906989416824,14.36906989,0.000217,LEO
